{
  "type": "FeatureCollection",
  "features": [
    {
      "type": "Feature",
      "properties": {
        "norad_id": 65731,
        "name": "1998-067XK",
        "group": "stations",
        "lat": 5.510548835232799,
        "lon": -103.67319391380923,
        "alt_km": 367.68996758121375,
        "timestamp": "2025-12-23T20:42:35.830578+00:00",
        "meta_object_name": "1998-067XK",
        "meta_object_id": "1998-067XK",
        "meta_epoch": "2025-12-23T06:12:26.032896",
        "meta_mean_motion": 15.67713225,
        "meta_eccentricity": 0.00049619,
        "meta_inclination": 51.6292,
        "meta_ra_of_asc_node": 83.7873,
        "meta_arg_of_pericenter": 312.0823,
        "meta_mean_anomaly": 47.9751,
        "meta_ephemeris_type": 0,
        "meta_classification_type": "U",
        "meta_norad_cat_id": 65731,
        "meta_element_set_no": 999,
        "meta_rev_at_epoch": 1479,
        "meta_bstar": 0.00091991075,
        "meta_mean_motion_dot": 0.00103596,
        "meta_mean_motion_ddot": 0,
        "tle_line1": "1 65731U 98067XK  25357.25863464  .00103596  00000+0  91991-3 0  9997",
        "tle_line2": "2 65731  51.6292  83.7873 0004961 312.0823  47.9751 15.67713225 14797"
      },
      "geometry": {
        "type": "Point",
        "coordinates": [
          -103.67319391380923,
          5.510548835232799
        ]
      }
    },
    {
      "type": "Feature",
      "properties": {
        "norad_id": 65732,
        "name": "RSP-03",
        "group": "stations",
        "lat": -51.35620156183625,
        "lon": -2.6163931651897863,
        "alt_km": 356.60705592982595,
        "timestamp": "2025-12-23T20:42:35.830592+00:00",
        "meta_object_name": "RSP-03",
        "meta_object_id": "1998-067XL",
        "meta_epoch": "2025-12-23T05:48:29.033280",
        "meta_mean_motion": 15.71259199,
        "meta_eccentricity": 0.0005983,
        "meta_inclination": 51.6261,
        "meta_ra_of_asc_node": 82.9119,
        "meta_arg_of_pericenter": 318.7681,
        "meta_mean_anomaly": 41.2865,
        "meta_ephemeris_type": 0,
        "meta_classification_type": "U",
        "meta_norad_cat_id": 65732,
        "meta_element_set_no": 999,
        "meta_rev_at_epoch": 1481,
        "meta_bstar": 0.001084272,
        "meta_mean_motion_dot": 0.00142295,
        "meta_mean_motion_ddot": 0,
        "tle_line1": "1 65732U 98067XL  25357.24200270  .00142295  00000+0  10843-2 0  9992",
        "tle_line2": "2 65732  51.6261  82.9119 0005983 318.7681  41.2865 15.71259199 14814"
      },
      "geometry": {
        "type": "Point",
        "coordinates": [
          -2.6163931651897863,
          -51.35620156183625
        ]
      }
    },
    {
      "type": "Feature",
      "properties": {
        "norad_id": 65733,
        "name": "GHS-01",
        "group": "stations",
        "lat": 41.415089138147735,
        "lon": -146.54289141199226,
        "alt_km": 329.6864921402457,
        "timestamp": "2025-12-23T20:42:35.830605+00:00",
        "meta_object_name": "GHS-01",
        "meta_object_id": "1998-067XM",
        "meta_epoch": "2025-12-22T16:51:43.023456",
        "meta_mean_motion": 15.79178849,
        "meta_eccentricity": 0.00088219,
        "meta_inclination": 51.6291,
        "meta_ra_of_asc_node": 83.8081,
        "meta_arg_of_pericenter": 342.1592,
        "meta_mean_anomaly": 17.9098,
        "meta_ephemeris_type": 0,
        "meta_classification_type": "U",
        "meta_norad_cat_id": 65733,
        "meta_element_set_no": 999,
        "meta_rev_at_epoch": 1475,
        "meta_bstar": 0.0013662085,
        "meta_mean_motion_dot": 0.00257457,
        "meta_mean_motion_ddot": 0,
        "tle_line1": "1 65733U 98067XM  25356.70258129  .00257457  00000+0  13662-2 0  9998",
        "tle_line2": "2 65733  51.6291  83.8081 0008821 342.1592  17.9098 15.79178849 14753"
      },
      "geometry": {
        "type": "Point",
        "coordinates": [
          -146.54289141199226,
          41.415089138147735
        ]
      }
    },
    {
      "type": "Feature",
      "properties": {
        "norad_id": 65941,
        "name": "YOTSUBA-KULOVER",
        "group": "stations",
        "lat": 22.45996268490108,
        "lon": 103.13061599348481,
        "alt_km": 381.2946670731026,
        "timestamp": "2025-12-23T20:42:35.830616+00:00",
        "meta_object_name": "YOTSUBA-KULOVER",
        "meta_object_id": "1998-067XN",
        "meta_epoch": "2025-12-23T06:45:22.876128",
        "meta_mean_motion": 15.6082914,
        "meta_eccentricity": 0.00022338,
        "meta_inclination": 51.6291,
        "meta_ra_of_asc_node": 86.9403,
        "meta_arg_of_pericenter": 346.8625,
        "meta_mean_anomaly": 13.231,
        "meta_ephemeris_type": 0,
        "meta_classification_type": "U",
        "meta_norad_cat_id": 65941,
        "meta_element_set_no": 999,
        "meta_rev_at_epoch": 1150,
        "meta_bstar": 0.00082116057,
        "meta_mean_motion_dot": 0.00069963,
        "meta_mean_motion_ddot": 0,
        "tle_line1": "1 65941U 98067XN  25357.28151477  .00069963  00000+0  82116-3 0  9995",
        "tle_line2": "2 65941  51.6291  86.9403 0002233 346.8625  13.2310 15.60829140 11508"
      },
      "geometry": {
        "type": "Point",
        "coordinates": [
          103.13061599348481,
          22.45996268490108
        ]
      }
    },
    {
      "type": "Feature",
      "properties": {
        "norad_id": 65942,
        "name": "BOTAN",
        "group": "stations",
        "lat": 21.78415661350549,
        "lon": -115.45767476828536,
        "alt_km": 372.43026628784355,
        "timestamp": "2025-12-23T20:42:35.830627+00:00",
        "meta_object_name": "BOTAN",
        "meta_object_id": "1998-067XP",
        "meta_epoch": "2025-12-23T06:16:22.684224",
        "meta_mean_motion": 15.65035738,
        "meta_eccentricity": 0.00032278,
        "meta_inclination": 51.6284,
        "meta_ra_of_asc_node": 86.0542,
        "meta_arg_of_pericenter": 325.6529,
        "meta_mean_anomaly": 34.4257,
        "meta_ephemeris_type": 0,
        "meta_classification_type": "U",
        "meta_norad_cat_id": 65942,
        "meta_element_set_no": 999,
        "meta_rev_at_epoch": 1151,
        "meta_bstar": 0.0011276843,
        "meta_mean_motion_dot": 0.001142,
        "meta_mean_motion_ddot": 0,
        "tle_line1": "1 65942U 98067XP  25357.26137366  .00114200  00000+0  11277-2 0  9999",
        "tle_line2": "2 65942  51.6284  86.0542 0003227 325.6529  34.4257 15.65035738 11511"
      },
      "geometry": {
        "type": "Point",
        "coordinates": [
          -115.45767476828536,
          21.78415661350549
        ]
      }
    },
    {
      "type": "Feature",
      "properties": {
        "norad_id": 65943,
        "name": "E-KAGAKU-1",
        "group": "stations",
        "lat": 22.023916446780227,
        "lon": 102.70786130795872,
        "alt_km": 382.4578275331096,
        "timestamp": "2025-12-23T20:42:35.830638+00:00",
        "meta_object_name": "E-KAGAKU-1",
        "meta_object_id": "1998-067XQ",
        "meta_epoch": "2025-12-22T10:46:55.533504",
        "meta_mean_motion": 15.60710313,
        "meta_eccentricity": 0.00012968,
        "meta_inclination": 51.6319,
        "meta_ra_of_asc_node": 91.1385,
        "meta_arg_of_pericenter": 295.9007,
        "meta_mean_anomaly": 64.1852,
        "meta_ephemeris_type": 0,
        "meta_classification_type": "U",
        "meta_norad_cat_id": 65943,
        "meta_element_set_no": 999,
        "meta_rev_at_epoch": 1137,
        "meta_bstar": 0.00086344374,
        "meta_mean_motion_dot": 0.00073283,
        "meta_mean_motion_ddot": 0,
        "tle_line1": "1 65943U 98067XQ  25356.44925386  .00073283  00000+0  86344-3 0  9999",
        "tle_line2": "2 65943  51.6319  91.1385 0001296 295.9007  64.1852 15.60710313 11376"
      },
      "geometry": {
        "type": "Point",
        "coordinates": [
          102.70786130795872,
          22.023916446780227
        ]
      }
    },
    {
      "type": "Feature",
      "properties": {
        "norad_id": 66052,
        "name": "HRC MONOBLOCK CAMERA",
        "group": "stations",
        "lat": 26.195555828818584,
        "lon": -116.9268443456024,
        "alt_km": 399.30334994026634,
        "timestamp": "2025-12-23T20:42:35.830648+00:00",
        "meta_object_name": "HRC MONOBLOCK CAMERA",
        "meta_object_id": "1998-067XR",
        "meta_epoch": "2025-12-23T06:12:12.769632",
        "meta_mean_motion": 15.5485157,
        "meta_eccentricity": 0.00022312,
        "meta_inclination": 51.6307,
        "meta_ra_of_asc_node": 89.0322,
        "meta_arg_of_pericenter": 234.8105,
        "meta_mean_anomaly": 125.2677,
        "meta_ephemeris_type": 0,
        "meta_classification_type": "U",
        "meta_norad_cat_id": 66052,
        "meta_element_set_no": 999,
        "meta_rev_at_epoch": 1047,
        "meta_bstar": 0.00054431757,
        "meta_mean_motion_dot": 0.00036687,
        "meta_mean_motion_ddot": 0,
        "tle_line1": "1 66052U 98067XR  25357.25848113  .00036687  00000+0  54432-3 0  9993",
        "tle_line2": "2 66052  51.6307  89.0322 0002231 234.8105 125.2677 15.54851570 10471"
      },
      "geometry": {
        "type": "Point",
        "coordinates": [
          -116.9268443456024,
          26.195555828818584
        ]
      }
    }
  ]
}